1 08820U 76039A   03153.70632016  .00000013  00000-0  10000-3 0  9257
2 08820 109.8052 176.6457 0044630 304.4825  55.1672  6.38664385376139
